IRIDIUM 155             
1 43573U 18061E   22089.38966331  .00000248  00000+0  81454-4 0  9997
2 43573  86.4000 340.2033 0002112  74.4961 285.6468 14.34219230192655
IRIDIUM 154             
1 43574U 18061F   22089.23108494  .00000225  00000+0  73178-4 0  9999
2 43574  86.4007 340.3299 0002416  88.8746 271.2727 14.34211392192688
IRIDIUM 163             
1 43575U 18061G   22089.77021762  .00000262  00000+0  86404-4 0  9998
2 43575  86.4001 340.0666 0001796  93.8511 266.2890 14.34217814192730
IRIDIUM 156             
1 43576U 18061H   22089.39599031  .00000247  00000+0  81080-4 0  9994
2 43576  86.3999 340.2286 0001816  84.4476 275.6926 14.34214704192677
IRIDIUM 164             
1 43577U 18061J   22089.44675434  .00000249  00000+0  81941-4 0  9991
2 43577  86.4003 340.2239 0002139  91.8132 268.3309 14.34217411192721
IRIDIUM 159             
1 43578U 18061K   22089.41503134  .00000249  00000+0  81987-4 0  9996
2 43578  86.4001 340.2062 0002195  89.7003 270.4444 14.34217112192686
IRIDIUM 180             
1 43922U 19002A   22089.55405019  .00000086  00000+0  23747-4 0  9992
2 43922  86.3915 276.9828 0002404 108.0468 252.0989 14.34217885168310
IRIDIUM 176             
1 43923U 19002B   22089.55440734  .00000349  00000+0  51452-4 0  9992
2 43923  86.6050 277.0173 0002375  87.4458 272.7031 14.72252942172727
IRIDIUM 168             
1 43924U 19002C   22089.54769798  .00000085  00000+0  23363-4 0  9993
2 43924  86.3917 277.0193 0002281  95.8428 264.3028 14.34218662168294
IRIDIUM 173             
1 43925U 19002D   22089.53501297  .00000078  00000+0  20878-4 0  9991
2 43925  86.3915 276.9764 0002174  95.7121 264.4323 14.34218544168271
IRIDIUM 169             
1 43926U 19002E   22089.56563607  .00000332  00000+0  10193-3 0  9999
2 43926  86.4198 308.5915 0005605  33.5116 326.6435 14.38609223168875
IRIDIUM 172             
1 43927U 19002F   22089.24960552  .00000084  00000+0  23026-4 0  9999
2 43927  86.3914 277.0989 0002232  98.2486 261.8963 14.34218511168242
IRIDIUM 175             
1 43928U 19002G   22089.54820766  .00000349  00000+0  51424-4 0  9992
2 43928  86.6053 276.8477 0002395  99.6598 260.4889 14.72252596172710
IRIDIUM 171             
1 43929U 19002H   22089.78871390  .00000086  00000+0  23780-4 0  9990
2 43929  86.3925 277.0088 0002299  94.9845 265.1613 14.34217616168313
IRIDIUM 170             
1 43930U 19002J   22089.56054876  .00000333  00000+0  48846-4 0  9995
2 43930  86.6052 277.0206 0002616  91.6132 268.5385 14.72246211172736
IRIDIUM 167             
1 43931U 19002K   22089.57306559  .00000087  00000+0  24102-4 0  9990
2 43931  86.3916 276.9724 0002390 102.0600 258.0864 14.34217372168287
